OBJECT_NAME,OBJECT_ID,EPOCH,MEAN_MOTION,ECCENTRICITY,INCLINATION,RA_OF_ASC_NODE,ARG_OF_PERICENTER,MEAN_ANOMALY,EPHEMERIS_TYPE,CLASSIFICATION_TYPE,NORAD_CAT_ID,ELEMENT_SET_NO,REV_AT_EPOCH,BSTAR,MEAN_MOTION_DOT,MEAN_MOTION_DDOT
ATLAS CENTAUR 2,1963-047A,2026-06-13T21:18:36.896256,14.12513268,.05459728,30.3571,17.8440,208.4186,148.5586,0,U,694,999,14523,.14422568E-3,.1304E-4,0
THOR AGENA D R/B,1964-002A,2026-06-14T12:08:06.654048,14.34064647,.0032445,99.1155,184.0930,338.5166,21.4653,0,U,733,999,25217,.66388E-4,.138E-5,0
SL-3 R/B,1964-053B,2026-06-13T23:26:31.549920,14.61425521,.0081062,65.0776,48.9261,262.1111,97.0783,0,U,877,999,28086,.43861788E-4,.101E-5,0
SL-8 R/B,1967-045B,2026-06-14T10:57:01.258848,14.45681080,.0063534,74.0094,167.3592,152.4652,207.9896,0,U,2802,999,10300,.55215E-4,.172E-5,0
SL-8 R/B,1968-040B,2026-06-14T07:44:09.265344,15.03802923,.0025973,74.0301,116.1493,269.8079,90.0133,0,U,3230,999,10453,.18881E-3,.2571E-4,0
OAO 2,1968-110A,2026-06-14T12:02:58.282080,14.47351012,.0006215,34.9937,84.6710,254.6607,105.3397,0,U,3597,999,3313,.50156E-4,.167E-5,0
ISIS 1,1969-009A,2026-06-14T04:22:18.904800,11.30433539,.17061379,88.4427,144.7299,254.2982,86.4086,0,U,3669,999,35943,.25980695E-4,.35E-6,0
SERT 2,1970-009A,2026-06-14T11:11:21.445152,13.58738957,.000397,99.2842,103.3254,282.0229,186.0009,0,U,4327,999,79303,.31706E-4,-.18E-6,0
SL-3 R/B,1971-028B,2026-06-14T12:07:37.812864,15.69512176,.0013867,81.2335,291.6974,290.0603,69.9161,0,U,5118,999,382,.38953E-3,.4626E-3,0
ASTEX 1,1971-089A,2026-06-14T12:29:23.877600,14.50849892,.001776,92.6999,182.9969,114.0646,246.2421,0,U,5560,999,87634,.10691E-3,.421E-5,0
SL-8 R/B,1971-119B,2026-06-14T12:22:29.435808,14.39491943,.0543767,73.8873,354.4707,300.9725,53.9073,0,U,5730,999,66941,.15686E-3,.3023E-4,0
OAO 3 (COPERNICUS),1972-065A,2026-06-14T03:37:08.605056,14.60058833,.00072008,35.0052,107.7054,232.6681,144.3190,0,U,6153,999,86030,.5739998E-4,.259E-5,0
ATLAS CENTAUR R/B,1972-065B,2026-06-14T12:11:38.022144,14.77916170,.0032813,35.0012,98.2477,105.9027,254.5294,0,U,6155,999,85559,.13605E-3,.98E-5,0
SL-8 R/B,1975-112B,2026-06-14T11:12:40.979808,14.38245024,.001686,74.0594,200.8779,268.1466,91.7757,0,U,8459,999,64578,.77303E-4,.209E-5,0
SL-3 R/B,1977-057B,2026-06-14T12:02:41.061696,15.47834632,.0005419,97.5828,341.9130,297.0935,62.9761,0,U,10114,999,68329,.20004E-3,.10302E-3,0
SEASAT 1,1978-064A,2026-06-14T09:41:17.435328,14.46241579,.0001901,108.0168,328.4458,240.6264,119.4692,0,U,10967,999,52049,.10463E-3,.237E-5,0
SL-14 R/B,1979-011B,2026-06-14T11:49:50.118816,14.92012050,.0017538,82.5238,4.7114,93.7729,266.5496,0,U,11267,999,54321,.42389E-4,.457E-5,0
SL-8 R/B,1979-089B,2026-06-14T10:20:12.017760,14.42402910,.001493,74.0694,271.9600,56.8230,303.4356,0,U,11574,999,45005,.62539E-4,.181E-5,0
SL-14 R/B,1980-005B,2026-06-14T12:03:43.605792,14.91026983,.0015246,82.5142,215.3869,194.9996,165.0774,0,U,11672,999,49091,.40517E-4,.427E-5,0
SL-8 R/B,1981-003B,2026-06-14T12:12:38.439072,15.14150538,.025059,82.9362,200.2602,200.5246,158.5785,0,U,12139,999,32931,.37717E-3,.15388E-3,0
SL-3 R/B,1981-046B,2026-06-14T11:13:36.130656,15.44147046,.0018806,81.2289,173.3447,46.8420,313.4391,0,U,12465,999,45335,.22143E-3,.1024E-3,0
SL-3 R/B,1981-103B,2026-06-14T11:46:15.204000,15.22265971,.0011964,81.1589,99.8011,325.8904,34.1558,0,U,12904,999,98795,.20296E-3,.4702E-4,0
SL-3 R/B,1982-013B,2026-06-14T11:06:34.502112,15.22772923,.0021211,81.1748,47.2559,210.3266,149.6740,0,U,13068,999,41907,.13549E-3,.3209E-4,0
SL-3 R/B,1982-039B,2026-06-14T12:25:25.524192,15.10523517,.0029159,81.1440,104.1708,5.0779,355.0736,0,U,13154,999,39625,.19072E-3,.3197E-4,0
SL-3 R/B,1982-079B,2026-06-14T11:49:56.347392,15.25769529,.0023489,81.1470,78.6741,194.6786,165.3769,0,U,13403,999,39245,.17348E-3,.449E-4,0
SL-14 R/B,1982-092B,2026-06-14T10:45:29.175840,14.86746103,.0019897,82.5682,50.8663,344.6186,188.2108,0,U,13553,999,34330,.39227E-4,.375E-5,0
SL-3 R/B,1983-010B,2026-06-14T11:24:45.307296,15.49180096,.0015674,81.1023,243.3038,71.5735,288.7213,0,U,13819,999,37291,.25546E-3,.14014E-3,0
SL-3 R/B,1983-075B,2026-06-14T11:17:48.975936,15.40449450,.0019099,97.6096,173.8640,239.5761,120.3597,0,U,14208,999,34504,.22643E-3,.9136E-4,0
COSMOS 1536,1984-013A,2026-06-14T12:54:26.637120,15.25027010,.0012772,82.5442,11.4842,305.9088,54.0964,0,U,14699,999,28737,.20063E-3,.5052E-4,0
SL-14 R/B,1984-027B,2026-06-14T10:54:09.137088,14.86057891,.0018413,82.5411,154.2801,18.0384,342.1482,0,U,14820,999,26200,.42849E-4,.4E-5,0
SL-8 R/B,1985-006B,2026-06-14T12:46:39.398880,14.37834046,.0018785,74.0459,82.9493,330.5370,202.1350,0,U,15483,999,16794,.71732E-4,.19E-5,0
