ATLAS CENTAUR 2         
1 00694U 63047A   26164.88792704  .00001304  00000+0  14423-3 0  9997
2 00694  30.3571  17.8440 0545972 208.4186 148.5586 14.12513268145230
THOR AGENA D R/B        
1 00733U 64002A   26165.50563257  .00000138  00000+0  66388-4 0  9994
2 00733  99.1155 184.0930 0032445 338.5166  21.4653 14.34064647252177
SL-3 R/B                
1 00877U 64053B   26164.97675405  .00000101  00000+0  43862-4 0  9990
2 00877  65.0776  48.9261 0081062 262.1111  97.0783 14.61425521280865
SL-8 R/B                
1 02802U 67045B   26165.45626457  .00000172  00000+0  55215-4 0  9994
2 02802  74.0094 167.3592 0063534 152.4652 207.9896 14.45681080103009
SL-8 R/B                
1 03230U 68040B   26165.32232946  .00002571  00000+0  18881-3 0  9990
2 03230  74.0301 116.1493 0025973 269.8079  90.0133 15.03802923104539
OAO 2                   
1 03597U 68110A   26165.50206345  .00000167  00000+0  50156-4 0  9999
2 03597  34.9937  84.6710 0006215 254.6607 105.3397 14.47351012 33137
ISIS 1                  
1 03669U 69009A   26165.18216325  .00000035  00000+0  25981-4 0  9992
2 03669  88.4427 144.7299 1706137 254.2982  86.4086 11.30433539359430
SERT 2                  
1 04327U 70009A   26165.46622043 -.00000018  00000+0  31706-4 0  9999
2 04327  99.2842 103.3254 0003970 282.0229 186.0009 13.58738957793036
SL-3 R/B                
1 05118U 71028B   26165.50529876  .00046260  00000+0  38953-3 0  9993
2 05118  81.2335 291.6974 0013867 290.0603  69.9161 15.69512176  3820
ASTEX 1                 
1 05560U 71089A   26165.52041525  .00000421  00000+0  10691-3 0  9991
2 05560  92.6999 182.9969 0017760 114.0646 246.2421 14.50849892876348
SL-8 R/B                
1 05730U 71119B   26165.51561847  .00003023  00000+0  15686-3 0  9997
2 05730  73.8873 354.4707 0543767 300.9725  53.9073 14.39491943669411
OAO 3 (COPERNICUS)      
1 06153U 72065A   26165.15079404  .00000259  00000+0  57400-4 0  9990
2 06153  35.0052 107.7054 0007200 232.6681 144.3190 14.60058833860300
ATLAS CENTAUR R/B       
1 06155U 72065B   26165.50807896  .00000980  00000+0  13605-3 0  9994
2 06155  35.0012  98.2477 0032813 105.9027 254.5294 14.77916170855594
SL-8 R/B                
1 08459U 75112B   26165.46714097  .00000209  00000+0  77303-4 0  9994
2 08459  74.0594 200.8779 0016860 268.1466  91.7757 14.38245024645783
SL-3 R/B                
1 10114U 77057B   26165.50186414  .00010302  00000+0  20004-3 0  9996
2 10114  97.5828 341.9130 0005419 297.0935  62.9761 15.47834632683295
SEASAT 1                
1 10967U 78064A   26165.40367402  .00000237  00000+0  10463-3 0  9992
2 10967 108.0168 328.4458 0001901 240.6264 119.4692 14.46241579520493
SL-14 R/B               
1 11267U 79011B   26165.49294119  .00000457  00000+0  42389-4 0  9999
2 11267  82.5238   4.7114 0017538  93.7729 266.5496 14.92012050543212
SL-8 R/B                
1 11574U 79089B   26165.43069465  .00000181  00000+0  62539-4 0  9996
2 11574  74.0694 271.9600 0014930  56.8230 303.4356 14.42402910450051
SL-14 R/B               
1 11672U 80005B   26165.50258803  .00000427  00000+0  40517-4 0  9994
2 11672  82.5142 215.3869 0015246 194.9996 165.0774 14.91026983490916
SL-8 R/B                
1 12139U 81003B   26165.50877823  .00015388  00000+0  37717-3 0  9990
2 12139  82.9362 200.2602 0250590 200.5246 158.5785 15.14150538329310
SL-3 R/B                
1 12465U 81046B   26165.46777929  .00010240  00000+0  22143-3 0  9999
2 12465  81.2289 173.3447 0018806  46.8420 313.4391 15.44147046453356
SL-3 R/B                
1 12904U 81103B   26165.49045375  .00004702  00000+0  20296-3 0  9990
2 12904  81.1589  99.8011 0011964 325.8904  34.1558 15.22265971987954
SL-3 R/B                
1 13068U 82013B   26165.46289933  .00003209  00000+0  13549-3 0  9994
2 13068  81.1748  47.2559 0021211 210.3266 149.6740 15.22772923419070
SL-3 R/B                
1 13154U 82039B   26165.51765653  .00003197  00000+0  19072-3 0  9995
2 13154  81.1440 104.1708 0029159   5.0779 355.0736 15.10523517396253
SL-3 R/B                
1 13403U 82079B   26165.49301328  .00004490  00000+0  17348-3 0  9999
2 13403  81.1470  78.6741 0023489 194.6786 165.3769 15.25769529392455
SL-14 R/B               
1 13553U 82092B   26165.44825435  .00000375  00000+0  39227-4 0  9994
2 13553  82.5682  50.8663 0019897 344.6186 188.2108 14.86746103343305
SL-3 R/B                
1 13819U 83010B   26165.47552439  .00014014  00000+0  25546-3 0  9997
2 13819  81.1023 243.3038 0015674  71.5735 288.7213 15.49180096372919
SL-3 R/B                
1 14208U 83075B   26165.47070574  .00009136  00000+0  22643-3 0  9990
2 14208  97.6096 173.8640 0019099 239.5761 120.3597 15.40449450345043
COSMOS 1536             
1 14699U 84013A   26165.53780830  .00005052  00000+0  20063-3 0  9994
2 14699  82.5442  11.4842 0012772 305.9088  54.0964 15.25027010287376
SL-14 R/B               
1 14820U 84027B   26165.45427242  .00000400  00000+0  42849-4 0  9990
2 14820  82.5411 154.2801 0018413  18.0384 342.1482 14.86057891262003
SL-8 R/B                
1 15483U 85006B   26165.53240045  .00000190  00000+0  71732-4 0  9996
2 15483  74.0459  82.9493 0018785 330.5370 202.1350 14.37834046167947
